STARLINK-32037          
1 60283U 24132F   26068.39311660  .00000058  00000+0  14079-4 0  9999
2 60283  53.1605  53.9022 0001143  97.8508 262.2622 15.30186883 91519
TEVEL2-9                
1 63237U 25052AD  26068.70229538  .00018694  00000+0  67240-3 0  9992
2 63237  97.4057 324.3929 0007990 124.2475 235.9522 15.28633834 54816
